HAWK-2A                 
1 47505U 21006CW  26068.67946547  .00008113  00000+0  25431-3 0  9990
2 47505  97.2459 115.6184 0006450 187.1463 172.9689 15.33304498284242
STARLINK-35228          
1 65517U 25198AB  26068.82721041  .00020553  00000+0  70422-3 0  9998
2 65517  53.1587 270.1762 0001063  85.2428 274.8694 15.30196191 28645
